OBJECT_NAME,OBJECT_ID,EPOCH,MEAN_MOTION,ECCENTRICITY,INCLINATION,RA_OF_ASC_NODE,ARG_OF_PERICENTER,MEAN_ANOMALY,EPHEMERIS_TYPE,CLASSIFICATION_TYPE,NORAD_CAT_ID,ELEMENT_SET_NO,REV_AT_EPOCH,BSTAR,MEAN_MOTION_DOT,MEAN_MOTION_DDOT
GSAT-15,2015-065A,2026-06-17T15:27:13.913856,1.00272214,.00042255,0.0687,265.0590,164.0387,162.1043,0,U,41028,999,3880,0,-.263E-5,0
BADR-7 (ARABSAT-6B),2015-065B,2026-06-16T18:16:15.450816,1.00274495,.00040166,0.0498,241.3376,317.2659,6.5039,0,U,41029,999,3876,0,.142E-5,0
LAOSAT 1,2015-067A,2026-06-16T18:45:30.353184,1.00269581,.00021573,0.0482,160.0850,235.8938,278.9523,0,U,41034,999,3885,0,-.345E-5,0
TELSTAR 12V,2015-068A,2026-06-16T19:47:13.697376,1.00271008,.00021392,0.0173,4.6232,73.4593,108.8172,0,U,41036,999,3862,0,-.122E-5,0
ELEKTRO-L 2,2015-074A,2026-06-16T15:18:31.243968,1.00270425,.0000972,6.6931,70.5258,242.2635,167.2330,0,U,41105,999,3850,0,-.124E-5,0
COSMOS 2513,2015-075A,2026-06-16T20:14:23.822592,1.00273214,.00031485,0.0795,101.3339,329.4888,218.1283,0,U,41121,999,3854,0,-.141E-5,0
EXPRESS-AMU1,2015-082A,2026-06-16T22:11:04.138080,1.00273659,.00027603,0.0131,301.0026,151.6550,181.4056,0,U,41191,999,3826,0,.152E-5,0
GAOFEN-4,2015-083A,2026-06-17T15:32:35.193984,1.00268400,.00043822,0.3588,83.7594,115.4737,45.4945,0,U,41194,999,3853,0,-.339E-5,0
BELINTERSAT-1,2016-001A,2026-06-16T22:19:20.460288,1.00272804,.00023793,0.0370,254.3789,150.3874,246.7201,0,U,41238,999,3823,0,.104E-5,0
IRNSS-1E,2016-003A,2026-06-16T15:15:10.215360,1.00278289,.00232847,33.2270,59.7572,150.0842,35.4479,0,U,41241,999,3807,0,-.321E-5,0
EUTELSAT 9B,2016-005A,2026-06-16T19:54:01.547712,1.00271305,.00016498,0.0803,75.4176,329.8284,167.3204,0,U,41310,999,3811,0,.59E-6,0
SES-9,2016-013A,2026-06-16T23:47:45.847104,1.00271916,.00021402,0.0107,341.5259,101.3435,287.6203,0,U,41380,999,3743,0,-.348E-5,0
EUTELSAT 65 WEST A,2016-014A,2026-06-17T11:40:38.561952,1.00268189,.0001963,0.0537,331.2119,105.8607,298.6079,0,U,41382,999,3752,0,-.281E-5,0
IRNSS-1F,2016-015A,2026-06-16T20:00:45.900576,1.00267188,.00174479,5.3481,96.7884,185.2365,315.7338,0,U,41384,999,3766,0,.152E-5,0
BEIDOU-2 IGSO-6,2016-021A,2026-06-16T02:58:21.700128,1.00259474,.00571844,60.2243,38.0497,231.4868,132.3999,0,U,41434,999,3747,0,-.15E-5,0
IRNSS-1G,2016-027A,2026-06-16T18:45:45.328896,1.00266276,.00075465,5.1970,97.4824,355.0148,223.4807,0,U,41469,999,3717,0,-.34E-5,0
JCSAT-2B,2016-028A,2026-06-17T05:17:38.729760,1.00270641,.0000816,0.0176,357.0094,95.6181,46.2582,0,U,41471,999,3713,0,-.169E-5,0
THAICOM 8,2016-031A,2026-06-16T18:31:14.015136,1.00268616,.00034862,0.0539,29.7553,29.5441,202.0350,0,U,41552,999,3671,0,-.123E-5,0
INTELSAT 31 (IS-31),2016-035A,2026-06-17T07:46:38.554176,1.00269660,.00010912,0.0151,275.6006,339.5655,32.0181,0,U,41581,999,3668,0,-.155E-5,0
BEIDOU-2 G7,2016-037A,2026-06-17T15:35:23.787168,1.00276279,.00064237,1.7212,69.3036,357.7680,183.1395,0,U,41586,999,689,0,-.359E-5,0
ABS-2A (MONGOLSAT-1),2016-038A,2026-06-16T23:37:50.598624,1.00268126,.00012292,0.0137,342.4397,39.6637,312.3474,0,U,41588,999,3670,0,-.87E-6,0
EUTELSAT 117 WEST B,2016-038B,2026-06-17T04:34:57.489888,1.00273582,.00003969,0.0084,149.9850,298.2334,128.9751,0,U,41589,999,3666,0,-.16E-6,0
BRISAT,2016-039A,2026-06-16T18:51:44.754624,1.00268877,.00018882,0.0232,337.3604,105.9123,255.2030,0,U,41591,999,3660,0,0,0
ECHOSTAR 18,2016-039B,2026-06-17T03:22:06.024000,1.00270489,.00012946,0.0174,7.8333,78.8762,167.8385,0,U,41592,999,3662,0,-.286E-5,0
MUOS-5,2016-041A,2026-06-16T15:56:01.758336,1.00271975,.01974396,2.2042,301.6606,260.8428,196.2046,0,U,41622,999,3708,0,-.135E-5,0
TIANTONG-1 1,2016-048A,2026-06-17T02:43:21.768096,1.00274551,.00054426,3.8496,43.4212,43.0121,321.1663,0,U,41725,999,3627,0,-.323E-5,0
JCSAT-16,2016-050A,2026-06-16T13:41:52.170144,1.00270195,.0000902,0.0173,3.0523,120.0129,131.1787,0,U,41729,999,3606,0,-.253E-5,0
USA 270,2016-052A,2026-06-11T08:15:58.536000,1.00285262,.0008524,4.1835,77.2658,338.7721,152.1702,0,U,41744,999,2807,0,.96E-6,0
USA 271,2016-052B,2026-06-11T06:58:56.063424,1.00260351,.0010788,4.1546,77.3359,156.7037,252.9173,0,U,41745,999,2786,0,-.344E-5,0
INTELSAT 36 (IS-36),2016-053A,2026-06-16T22:40:02.265024,1.00270845,.00021817,0.0113,10.1532,322.5607,340.9958,0,U,41747,999,3595,0,-.27E-6,0
INSAT-3DR,2016-054A,2026-06-16T22:47:58.970976,1.00270883,.00106033,0.1060,86.3723,187.4701,47.3357,0,U,41752,999,3581,0,-.8E-6,0
GSAT-18,2016-060A,2026-06-16T22:47:59.023680,1.00270888,.00054541,0.0601,97.4976,335.3911,248.2951,0,U,41793,999,3552,0,-.8E-6,0
