GSAT-15                 
1 41028U 15065A   26168.64391104 -.00000263  00000+0  00000+0 0  9993
2 41028   0.0687 265.0590 0004225 164.0387 162.1043  1.00272214 38802
BADR-7 (ARABSAT-6B)     
1 41029U 15065B   26167.76128994  .00000142  00000+0  00000+0 0  9996
2 41029   0.0498 241.3376 0004016 317.2659   6.5039  1.00274495 38768
LAOSAT 1                
1 41034U 15067A   26167.78160131 -.00000345  00000+0  00000+0 0  9991
2 41034   0.0482 160.0850 0002157 235.8938 278.9523  1.00269581 38853
TELSTAR 12V             
1 41036U 15068A   26167.82446409 -.00000122  00000+0  00000+0 0  9997
2 41036   0.0173   4.6232 0002139  73.4593 108.8172  1.00271008 38625
ELEKTRO-L 2             
1 41105U 15074A   26167.63786162 -.00000124  00000+0  00000+0 0  9995
2 41105   6.6931  70.5258 0000972 242.2635 167.2330  1.00270425 38506
COSMOS 2513             
1 41121U 15075A   26167.84333128 -.00000141  00000+0  00000+0 0  9996
2 41121   0.0795 101.3339 0003148 329.4888 218.1283  1.00273214 38545
EXPRESS-AMU1            
1 41191U 15082A   26167.92435345  .00000152  00000+0  00000+0 0  9995
2 41191   0.0131 301.0026 0002760 151.6550 181.4056  1.00273659 38260
GAOFEN-4                
1 41194U 15083A   26168.64762956 -.00000339  00000+0  00000+0 0  9998
2 41194   0.3588  83.7594 0004382 115.4737  45.4945  1.00268400 38537
BELINTERSAT-1           
1 41238U 16001A   26167.93009792  .00000104  00000+0  00000+0 0  9990
2 41238   0.0370 254.3789 0002379 150.3874 246.7201  1.00272804 38239
IRNSS-1E                
1 41241U 16003A   26167.63553490 -.00000321  00000+0  00000+0 0  9994
2 41241  33.2270  59.7572 0023284 150.0842  35.4479  1.00278289 38072
EUTELSAT 9B             
1 41310U 16005A   26167.82918458  .00000059  00000+0  00000+0 0  9990
2 41310   0.0803  75.4176 0001649 329.8284 167.3204  1.00271305 38113
SES-9                   
1 41380U 16013A   26167.99150286 -.00000348  00000+0  00000+0 0  9993
2 41380   0.0107 341.5259 0002140 101.3435 287.6203  1.00271916 37431
EUTELSAT 65 WEST A      
1 41382U 16014A   26168.48655743 -.00000281  00000+0  00000+0 0  9995
2 41382   0.0537 331.2119 0001963 105.8607 298.6079  1.00268189 37524
IRNSS-1F                
1 41384U 16015A   26167.83386459  .00000152  00000+0  00000+0 0  9997
2 41384   5.3481  96.7884 0017447 185.2365 315.7338  1.00267188 37663
BEIDOU-2 IGSO-6         
1 41434U 16021A   26167.12386227 -.00000150  00000+0  00000+0 0  9994
2 41434  60.2243  38.0497 0057184 231.4868 132.3999  1.00259474 37472
IRNSS-1G                
1 41469U 16027A   26167.78177464 -.00000340  00000+0  00000+0 0  9992
2 41469   5.1970  97.4824 0007546 355.0148 223.4807  1.00266276 37174
JCSAT-2B                
1 41471U 16028A   26168.22058715 -.00000169  00000+0  00000+0 0  9992
2 41471   0.0176 357.0094 0000816  95.6181  46.2582  1.00270641 37138
THAICOM 8               
1 41552U 16031A   26167.77168999 -.00000123  00000+0  00000+0 0  9991
2 41552   0.0539  29.7553 0003486  29.5441 202.0350  1.00268616 36712
INTELSAT 31 (IS-31)     
1 41581U 16035A   26168.32405734 -.00000155  00000+0  00000+0 0  9995
2 41581   0.0151 275.6006 0001091 339.5655  32.0181  1.00269660 36689
BEIDOU-2 G7             
1 41586U 16037A   26168.64958087 -.00000359  00000+0  00000+0 0  9997
2 41586   1.7212  69.3036 0006423 357.7680 183.1395  1.00276279  6894
ABS-2A (MONGOLSAT-1)    
1 41588U 16038A   26167.98461341 -.00000087  00000+0  00000+0 0  9996
2 41588   0.0137 342.4397 0001229  39.6637 312.3474  1.00268126 36705
EUTELSAT 117 WEST B     
1 41589U 16038B   26168.19094317 -.00000016  00000+0  00000+0 0  9998
2 41589   0.0084 149.9850 0000396 298.2334 128.9751  1.00273582 36668
BRISAT                  
1 41591U 16039A   26167.78593466  .00000000  00000+0  00000+0 0  9997
2 41591   0.0232 337.3604 0001888 105.9123 255.2030  1.00268877 36602
ECHOSTAR 18             
1 41592U 16039B   26168.14034750 -.00000286  00000+0  00000+0 0  9992
2 41592   0.0174   7.8333 0001294  78.8762 167.8385  1.00270489 36629
MUOS-5                  
1 41622U 16041A   26167.66390924 -.00000135  00000+0  00000+0 0  9996
2 41622   2.2042 301.6606 0197439 260.8428 196.2046  1.00271975 37080
TIANTONG-1 1            
1 41725U 16048A   26168.11344639 -.00000323  00000+0  00000+0 0  9999
2 41725   3.8496  43.4212 0005442  43.0121 321.1663  1.00274551 36278
JCSAT-16                
1 41729U 16050A   26167.57074271 -.00000253  00000+0  00000+0 0  9999
2 41729   0.0173   3.0523 0000902 120.0129 131.1787  1.00270195 36063
USA 270                 
1 41744U 16052A   26162.34442750  .00000096  00000+0  00000+0 0  9993
2 41744   4.1835  77.2658 0008524 338.7721 152.1702  1.00285262 28079
USA 271                 
1 41745U 16052B   26162.29092666 -.00000344  00000+0  00000+0 0  9992
2 41745   4.1546  77.3359 0010788 156.7037 252.9173  1.00260351 27860
INTELSAT 36 (IS-36)     
1 41747U 16053A   26167.94447066 -.00000027  00000+0  00000+0 0  9998
2 41747   0.0113  10.1532 0002181 322.5607 340.9958  1.00270845 35956
INSAT-3DR               
1 41752U 16054A   26167.94998809 -.00000080  00000+0  00000+0 0  9990
2 41752   0.1060  86.3723 0010603 187.4701  47.3357  1.00270883 35810
GSAT-18                 
1 41793U 16060A   26167.94998870 -.00000080  00000+0  00000+0 0  9990
2 41793   0.0601  97.4976 0005454 335.3911 248.2951  1.00270888 35528
